[{"OBJECT_NAME":"KOMPSAT-3A","OBJECT_ID":"2015-014A","EPOCH":"2026-03-09T22:01:00.893280","MEAN_MOTION":15.4874093,"ECCENTRICITY":0.00634032,"INCLINATION":97.6881,"RA_OF_ASC_NODE":53.4301,"ARG_OF_PERICENTER":176.675,"MEAN_ANOMALY":183.4934,"EPHEMERIS_TYPE":0,"CLASSIFICATION_TYPE":"U","NORAD_CAT_ID":40536,"ELEMENT_SET_NO":999,"REV_AT_EPOCH":60642,"BSTAR":0.0004887239,"MEAN_MOTION_DOT":0.00028374,"MEAN_MOTION_DDOT":0},{"OBJECT_NAME":"STARLINK-1826","OBJECT_ID":"2020-073BF","EPOCH":"2026-03-10T00:00:02.999808","MEAN_MOTION":15.6009455,"ECCENTRICITY":0.00053849,"INCLINATION":53.0471,"RA_OF_ASC_NODE":178.9606,"ARG_OF_PERICENTER":209.9765,"MEAN_ANOMALY":60.9512,"EPHEMERIS_TYPE":0,"CLASSIFICATION_TYPE":"U","NORAD_CAT_ID":46723,"ELEMENT_SET_NO":999,"REV_AT_EPOCH":583,"BSTAR":0.0016085748,"MEAN_MOTION_DOT":0.00134686,"MEAN_MOTION_DDOT":0}]
